{
  "type": "FeatureCollection",
  "features": [
    {
      "type": "Feature",
      "properties": {
        "norad_id": 31655,
        "name": "FENGYUN 1C DEB",
        "group": "fengyun-1c-debris",
        "lat": -69.24357648554424,
        "lon": 80.48264939337159,
        "alt_km": 1042.6426342166424,
        "timestamp": "2025-12-05T20:43:02.338475+00:00",
        "meta_object_name": "FENGYUN 1C DEB",
        "meta_object_id": "1999-025CBM",
        "meta_epoch": "2025-12-02T03:33:47.704320",
        "meta_mean_motion": 13.63773307,
        "meta_eccentricity": 0.02884116,
        "meta_inclination": 99.2856,
        "meta_ra_of_asc_node": 282.5047,
        "meta_arg_of_pericenter": 165.6221,
        "meta_mean_anomaly": 213.94,
        "meta_ephemeris_type": 0,
        "meta_classification_type": "U",
        "meta_norad_cat_id": 31655,
        "meta_element_set_no": 999,
        "meta_rev_at_epoch": 59575,
        "meta_bstar": 0.002889873,
        "meta_mean_motion_dot": 2.997e-05,
        "meta_mean_motion_ddot": 0,
        "tle_line1": "1 31655U 99025CBM 25336.14846880  .00002997  00000+0  28899-2 0  9997",
        "tle_line2": "2 31655  99.2856 282.5047 0288411 165.6221 213.9400 13.63773307595756"
      },
      "geometry": {
        "type": "Point",
        "coordinates": [
          80.48264939337159,
          -69.24357648554424
        ]
      }
    },
    {
      "type": "Feature",
      "properties": {
        "norad_id": 31656,
        "name": "FENGYUN 1C DEB",
        "group": "fengyun-1c-debris",
        "lat": 59.31559627761943,
        "lon": 163.90503979944458,
        "alt_km": 719.5294131485307,
        "timestamp": "2025-12-05T20:43:02.338485+00:00",
        "meta_object_name": "FENGYUN 1C DEB",
        "meta_object_id": "1999-025CBN",
        "meta_epoch": "2025-12-03T05:09:50.756256",
        "meta_mean_motion": 14.46757304,
        "meta_eccentricity": 0.0022717,
        "meta_inclination": 99.1936,
        "meta_ra_of_asc_node": 325.1943,
        "meta_arg_of_pericenter": 78.8473,
        "meta_mean_anomaly": 295.9747,
        "meta_ephemeris_type": 0,
        "meta_classification_type": "U",
        "meta_norad_cat_id": 31656,
        "meta_element_set_no": 999,
        "meta_rev_at_epoch": 96318,
        "meta_bstar": 0.0029587,
        "meta_mean_motion_dot": 0.00010706,
        "meta_mean_motion_ddot": 0,
        "tle_line1": "1 31656U 99025CBN 25337.21517079  .00010706  00000+0  29587-2 0  9994",
        "tle_line2": "2 31656  99.1936 325.1943 0022717  78.8473 295.9747 14.46757304963184"
      },
      "geometry": {
        "type": "Point",
        "coordinates": [
          163.90503979944458,
          59.31559627761943
        ]
      }
    },
    {
      "type": "Feature",
      "properties": {
        "norad_id": 31657,
        "name": "FENGYUN 1C DEB",
        "group": "fengyun-1c-debris",
        "lat": 53.94192902057344,
        "lon": 79.33636112858295,
        "alt_km": 835.4490138241699,
        "timestamp": "2025-12-05T20:43:02.338495+00:00",
        "meta_object_name": "FENGYUN 1C DEB",
        "meta_object_id": "1999-025CBP",
        "meta_epoch": "2025-12-03T23:26:52.800000",
        "meta_mean_motion": 13.96908418,
        "meta_eccentricity": 0.01450895,
        "meta_inclination": 102.2172,
        "meta_ra_of_asc_node": 239.5268,
        "meta_arg_of_pericenter": 75.1219,
        "meta_mean_anomaly": 286.5949,
        "meta_ephemeris_type": 0,
        "meta_classification_type": "U",
        "meta_norad_cat_id": 31657,
        "meta_element_set_no": 999,
        "meta_rev_at_epoch": 62742,
        "meta_bstar": 0.0055937829,
        "meta_mean_motion_dot": 8.456e-05,
        "meta_mean_motion_ddot": 0,
        "tle_line1": "1 31657U 99025CBP 25337.97700000  .00008456  00000+0  55938-2 0  9994",
        "tle_line2": "2 31657 102.2172 239.5268 0145089  75.1219 286.5949 13.96908418627429"
      },
      "geometry": {
        "type": "Point",
        "coordinates": [
          79.33636112858295,
          53.94192902057344
        ]
      }
    },
    {
      "type": "Feature",
      "properties": {
        "norad_id": 31658,
        "name": "FENGYUN 1C DEB",
        "group": "fengyun-1c-debris",
        "lat": 18.606133168611496,
        "lon": -173.0539821489305,
        "alt_km": 772.3182998045877,
        "timestamp": "2025-12-05T20:43:02.338505+00:00",
        "meta_object_name": "FENGYUN 1C DEB",
        "meta_object_id": "1999-025CBQ",
        "meta_epoch": "2025-11-30T13:35:01.131648",
        "meta_mean_motion": 13.98632883,
        "meta_eccentricity": 0.0215722,
        "meta_inclination": 98.1534,
        "meta_ra_of_asc_node": 184.9954,
        "meta_arg_of_pericenter": 356.7033,
        "meta_mean_anomaly": 3.2699,
        "meta_ephemeris_type": 0,
        "meta_classification_type": "U",
        "meta_norad_cat_id": 31658,
        "meta_element_set_no": 999,
        "meta_rev_at_epoch": 69646,
        "meta_bstar": 0.0024889,
        "meta_mean_motion_dot": 4.324e-05,
        "meta_mean_motion_ddot": 0,
        "tle_line1": "1 31658U 99025CBQ 25334.56598532  .00004324  00000+0  24889-2 0  9993",
        "tle_line2": "2 31658  98.1534 184.9954 0215722 356.7033   3.2699 13.98632883696462"
      },
      "geometry": {
        "type": "Point",
        "coordinates": [
          -173.0539821489305,
          18.606133168611496
        ]
      }
    },
    {
      "type": "Feature",
      "properties": {
        "norad_id": 31660,
        "name": "FENGYUN 1C DEB",
        "group": "fengyun-1c-debris",
        "lat": -81.33137064268415,
        "lon": 60.33869303910404,
        "alt_km": 784.2182957546438,
        "timestamp": "2025-12-05T20:43:02.338515+00:00",
        "meta_object_name": "FENGYUN 1C DEB",
        "meta_object_id": "1999-025CBS",
        "meta_epoch": "2025-12-04T06:25:52.832640",
        "meta_mean_motion": 14.27084649,
        "meta_eccentricity": 0.0101329,
        "meta_inclination": 98.5047,
        "meta_ra_of_asc_node": 339.8449,
        "meta_arg_of_pericenter": 205.5295,
        "meta_mean_anomaly": 154.0863,
        "meta_ephemeris_type": 0,
        "meta_classification_type": "U",
        "meta_norad_cat_id": 31660,
        "meta_element_set_no": 999,
        "meta_rev_at_epoch": 7795,
        "meta_bstar": 0.0012372,
        "meta_mean_motion_dot": 3.142e-05,
        "meta_mean_motion_ddot": 0,
        "tle_line1": "1 31660U 99025CBS 25338.26797260  .00003142  00000+0  12372-2 0  9997",
        "tle_line2": "2 31660  98.5047 339.8449 0101329 205.5295 154.0863 14.27084649 77955"
      },
      "geometry": {
        "type": "Point",
        "coordinates": [
          60.33869303910404,
          -81.33137064268415
        ]
      }
    },
    {
      "type": "Feature",
      "properties": {
        "norad_id": 31661,
        "name": "FENGYUN 1C DEB",
        "group": "fengyun-1c-debris",
        "lat": 15.357424429533207,
        "lon": 56.41933610725776,
        "alt_km": 835.9140430353746,
        "timestamp": "2025-12-05T20:43:02.338525+00:00",
        "meta_object_name": "FENGYUN 1C DEB",
        "meta_object_id": "1999-025CBT",
        "meta_epoch": "2025-12-04T16:43:31.524096",
        "meta_mean_motion": 14.25332463,
        "meta_eccentricity": 0.00579393,
        "meta_inclination": 98.8613,
        "meta_ra_of_asc_node": 57.6971,
        "meta_arg_of_pericenter": 246.7222,
        "meta_mean_anomaly": 267.1092,
        "meta_ephemeris_type": 0,
        "meta_classification_type": "U",
        "meta_norad_cat_id": 31661,
        "meta_element_set_no": 999,
        "meta_rev_at_epoch": 95598,
        "meta_bstar": 0.0038619549,
        "meta_mean_motion_dot": 9.224e-05,
        "meta_mean_motion_ddot": 0,
        "tle_line1": "1 31661U 99025CBT 25338.69689264  .00009224  00000+0  38620-2 0  9990",
        "tle_line2": "2 31661  98.8613  57.6971 0057939 246.7222 267.1092 14.25332463955983"
      },
      "geometry": {
        "type": "Point",
        "coordinates": [
          56.41933610725776,
          15.357424429533207
        ]
      }
    },
    {
      "type": "Feature",
      "properties": {
        "norad_id": 31663,
        "name": "FENGYUN 1C DEB",
        "group": "fengyun-1c-debris",
        "lat": 31.00713319515064,
        "lon": -118.28301694698312,
        "alt_km": 727.3723185228619,
        "timestamp": "2025-12-05T20:43:02.338535+00:00",
        "meta_object_name": "FENGYUN 1C DEB",
        "meta_object_id": "1999-025CBV",
        "meta_epoch": "2025-12-03T11:38:28.212864",
        "meta_mean_motion": 14.76310711,
        "meta_eccentricity": 0.01897685,
        "meta_inclination": 98.838,
        "meta_ra_of_asc_node": 244.4812,
        "meta_arg_of_pericenter": 266.7407,
        "meta_mean_anomaly": 91.2075,
        "meta_ephemeris_type": 0,
        "meta_classification_type": "U",
        "meta_norad_cat_id": 31663,
        "meta_element_set_no": 999,
        "meta_rev_at_epoch": 99143,
        "meta_bstar": 0.0005527041,
        "meta_mean_motion_dot": 5.081e-05,
        "meta_mean_motion_ddot": 0,
        "tle_line1": "1 31663U 99025CBV 25337.48504876  .00005081  00000+0  55270-3 0  9991",
        "tle_line2": "2 31663  98.8380 244.4812 0189768 266.7407  91.2075 14.76310711991434"
      },
      "geometry": {
        "type": "Point",
        "coordinates": [
          -118.28301694698312,
          31.00713319515064
        ]
      }
    }
  ]
}